id,name,website,emailAddress,phoneNumber,type,industry,sicCode,contactRole,contactIsInactive,billingAddressStreet,billingAddressCity,billingAddressState,billingAddressCountry,billingAddressPostalCode,shippingAddressStreet,shippingAddressCity,shippingAddressState,shippingAddressCountry,shippingAddressPostalCode,description,createdAt,modifiedAt,targetListIsOptedOut,emailAddressIsOptedOut,emailAddressIsInvalid,phoneNumberIsOptedOut,phoneNumberIsInvalid,streamUpdatedAt,campaignId,campaignName,createdById,createdByName,modifiedById,modifiedByName,assignedUserId,assignedUserName,targetListId,targetListName,originalLeadId,originalLeadName
68eb89e5840960fd8,"llywodraeth cymru welsh government",,,,,,,,,,,,,,,,,,,,"2025-10-12 10:58:45","2025-10-12 10:58:45",,,,,,"2025-10-12 10:58:45",,,68df1d5a1ee3effd6,"Preston Zen",,,,,,,,
68eb015e21f33a145,Brave1,,,,,,,,,,,,,,,,,,,,"2025-10-12 01:16:14","2025-10-12 01:16:14",,,,,,,,,68df1d5a1ee3effd6,"Preston Zen",,,,,,,,
68eb015e207550f94,"Ministry of Digital Transformation",diia.gov.ua,,,,,,,,,,,,,,,,,,,"2025-10-12 01:16:14","2025-10-12 01:16:14",,,,,,,,,68df1d5a1ee3effd6,"Preston Zen",,,,,,,,
68eb015e1f01b7786,"Lviv Polytechnic University",lpnu.ua,,,,,,,,,,,,,,,,,,,"2025-10-12 01:16:14","2025-10-12 01:16:14",,,,,,,,,68df1d5a1ee3effd6,"Preston Zen",,,,,,,,
68eb015e1d81b6cb2,"Tech Startup School",techstartupschool.com,,,,,,,,,,,,,,,,,,,"2025-10-12 01:16:14","2025-10-12 01:16:14",,,,,,,,,68df1d5a1ee3effd6,"Preston Zen",,,,,,,,
68eb015e1bff5595d,"KSE Graduate Business School",kse.ua,,,,,,,,,,,,,,,,,,,"2025-10-12 01:16:14","2025-10-12 01:16:14",,,,,,,,,68df1d5a1ee3effd6,"Preston Zen",,,,,,,,
68eb015e1a87b11a0,reface.ai,reface.ai,,,,,,,,,,,,,,,,,,,"2025-10-12 01:16:14","2025-10-12 01:16:14",,,,,,,,,68df1d5a1ee3effd6,"Preston Zen",,,,,,,,
68eb015e19032581e,reface.ai,reface.ai,,,,,,,,,,,,,,,,,,,"2025-10-12 01:16:14","2025-10-12 01:16:14",,,,,,,,,68df1d5a1ee3effd6,"Preston Zen",,,,,,,,
68eb015e177b6dd70,"Northern Defence Investment Horizon",www.nodih.com,,,,,,,,,,,,,,,,,,,"2025-10-12 01:16:14","2025-10-12 01:16:14",,,,,,,,,68df1d5a1ee3effd6,"Preston Zen",,,,,,,,
68eb015e15f72070b,"Northern Defence Investment Horizon",www.nodih.com,,,,,,,,,,,,,,,,,,,"2025-10-12 01:16:14","2025-10-12 01:16:14",,,,,,,,,68df1d5a1ee3effd6,"Preston Zen",,,,,,,,
68eb015e146e9b5ef,"Northern Defence Investment Horizon",www.nodih.com,,,,,,,,,,,,,,,,,,,"2025-10-12 01:16:14","2025-10-12 01:16:14",,,,,,,,,68df1d5a1ee3effd6,"Preston Zen",,,,,,,,
68eb015e12e1e0fdd,"Northern Defence Investment Horizon",www.nodih.com,,,,,,,,,,,,,,,,,,,"2025-10-12 01:16:14","2025-10-12 01:16:14",,,,,,,,,68df1d5a1ee3effd6,"Preston Zen",,,,,,,,
68eb015e1153c5559,"Innovation Development Fund",usf.com.ua,,,,,,,,,,,,,,,,,,,"2025-10-12 01:16:14","2025-10-12 01:16:14",,,,,,,,,68df1d5a1ee3effd6,"Preston Zen",,,,,,,,
68eb015e0fcf6925b,Brave1,testinukraine.brave1.tech,,,,,,,,,,,,,,,,,,,"2025-10-12 01:16:14","2025-10-12 01:16:14",,,,,,,,,68df1d5a1ee3effd6,"Preston Zen",,,,,,,,
68eb015e0dd5f6d77,"Ukrainian Startup Fund",usf.com.ua,,,,,,,,,,,,,,,,,,,"2025-10-12 01:16:14","2025-10-12 01:16:14",,,,,,,,,68df1d5a1ee3effd6,"Preston Zen",,,,,,,,
68eb015e0c3077028,Brave1,brave1.gov.ua,,,,,,,,,,,,,,,,,,,"2025-10-12 01:16:14","2025-10-12 01:16:14",,,,,,,,,68df1d5a1ee3effd6,"Preston Zen",,,,,,,,
68eb015e0a7a3dea4,Brave1,brave1.gov.ua,,,,,,,,,,,,,,,,,,,"2025-10-12 01:16:14","2025-10-12 01:16:14",,,,,,,,,68df1d5a1ee3effd6,"Preston Zen",,,,,,,,
68eb015e08c90aec8,"Ministry of Digital Transformation of Ukraine",diia.gov.ua,,,,,,,,,,,,,,,,,,,"2025-10-12 01:16:14","2025-10-12 01:16:14",,,,,,,,,68df1d5a1ee3effd6,"Preston Zen",,,,,,,,
68eb015e071e5795d,"Ukrainian Startup Fund",usf.com.ua,,,,,,,,,,,,,,,,,,,"2025-10-12 01:16:14","2025-10-12 01:16:14",,,,,,,,,68df1d5a1ee3effd6,"Preston Zen",,,,,,,,
68eb015e057fe6fd2,"Ministry of Digital Transformation of Ukraine",diia.gov.ua,,,,,,,,,,,,,,,,,,,"2025-10-12 01:16:14","2025-10-12 01:16:14",,,,,,,,,68df1d5a1ee3effd6,"Preston Zen",,,,,,,,
68eb015e03d918c67,Nodih,www.nodih.com,,,,,,,,,,,,,,,,,,,"2025-10-12 01:16:14","2025-10-12 01:16:14",,,,,,,,,68df1d5a1ee3effd6,"Preston Zen",,,,,,,,
68eb015e021e33d50,Brave1,brave1.gov.ua,,,,,,,,,,,,,,,,,,,"2025-10-12 01:16:14","2025-10-12 01:16:14",,,,,,,,,68df1d5a1ee3effd6,"Preston Zen",,,,,,,,
68eb015df40cfc1f8,"Ukrainian Startup Fund",usf.com.ua,,,,,,,,,,,,,,,,,,,"2025-10-12 01:16:13","2025-10-12 01:16:13",,,,,,,,,68df1d5a1ee3effd6,"Preston Zen",,,,,,,,
68eafc189495cefbf,"≈Åukasiewicz Research Network",,,,,,,,,,,,,,,,,,,,"2025-10-12 00:53:44","2025-10-12 00:53:44",,,,,,,,,68df1d5a1ee3effd6,"Preston Zen",,,,,,,,
68eafc18927a7279e,"Zv'yazok Media",,,,,,,,,,,,,,,,,,,,"2025-10-12 00:53:44","2025-10-12 00:53:44",,,,,,,,,68df1d5a1ee3effd6,"Preston Zen",,,,,,,,
68eafc18905fbcd06,"Zubr Capital",,,,,,,,,,,,,,,,,,,,"2025-10-12 00:53:44","2025-10-12 00:53:44",,,,,,,,,68df1d5a1ee3effd6,"Preston Zen",,,,,,,,
68eafc188e480d15e,Zoritek,,,,,,,,,,,,,,,,,,,,"2025-10-12 00:53:44","2025-10-12 00:53:44",,,,,,,,,68df1d5a1ee3effd6,"Preston Zen",,,,,,,,
68eafc188c314510e,Zmiyar,,,,,,,,,,,,,,,,,,,,"2025-10-12 00:53:44","2025-10-12 00:53:44",,,,,,,,,68df1d5a1ee3effd6,"Preston Zen",,,,,,,,
68eafc188a18b43b6,"Zir System",,,,,,,,,,,,,,,,,,,,"2025-10-12 00:53:44","2025-10-12 00:53:44",,,,,,,,,68df1d5a1ee3effd6,"Preston Zen",,,,,,,,
68eafc1887ffa8203,"Zhytomyr UGV",,,,,,,,,,,,,,,,,,,,"2025-10-12 00:53:44","2025-10-12 00:53:44",,,,,,,,,68df1d5a1ee3effd6,"Preston Zen",,,,,,,,
68eafc1885e57cc94,"Zbroyari Defense (defense cluster)",,,,,,,,,,,,,,,,,,,,"2025-10-12 00:53:44","2025-10-12 00:53:44",,,,,,,,,68df1d5a1ee3effd6,"Preston Zen",,,,,,,,
68eafc1883c1d5408,"Yara Guard",,,,,,,,,,,,,,,,,,,,"2025-10-12 00:53:44","2025-10-12 00:53:44",,,,,,,,,68df1d5a1ee3effd6,"Preston Zen",,,,,,,,
68eafc1881a72cac8,"X1 Jet",,,,,,,,,,,,,,,,,,,,"2025-10-12 00:53:44","2025-10-12 00:53:44",,,,,,,,,68df1d5a1ee3effd6,"Preston Zen",,,,,,,,
68eafc187f8871cb0,"WIY Advanced Aerial Systems",,,,,,,,,,,,,,,,,,,,"2025-10-12 00:53:44","2025-10-12 00:53:44",,,,,,,,,68df1d5a1ee3effd6,"Preston Zen",,,,,,,,
68eafc187d719bbe6,"White Dance",,,,,,,,,,,,,,,,,,,,"2025-10-12 00:53:44","2025-10-12 00:53:44",,,,,,,,,68df1d5a1ee3effd6,"Preston Zen",,,,,,,,
68eafc187b56fb4a2,"Weibel Scientific",,,,,,,,,,,,,,,,,,,,"2025-10-12 00:53:44","2025-10-12 00:53:44",,,,,,,,,68df1d5a1ee3effd6,"Preston Zen",,,,,,,,
68eafc1879356d47c,"Vvryi Drone",,,,,,,,,,,,,,,,,,,,"2025-10-12 00:53:44","2025-10-12 00:53:44",,,,,,,,,68df1d5a1ee3effd6,"Preston Zen",,,,,,,,
68eafc18771e9fcab,Vluchnyk,,,,,,,,,,,,,,,,,,,,"2025-10-12 00:53:44","2025-10-12 00:53:44",,,,,,,,,68df1d5a1ee3effd6,"Preston Zen",,,,,,,,
68eafc18750300b1b,"Vilni Solutions",,,,,,,,,,,,,,,,,,,,"2025-10-12 00:53:44","2025-10-12 00:53:44",,,,,,,,,68df1d5a1ee3effd6,"Preston Zen",,,,,,,,
68eafc1872e44bfec,"Vidar Systems",,,,,,,,,,,,,,,,,,,,"2025-10-12 00:53:44","2025-10-12 00:53:44",,,,,,,,,68df1d5a1ee3effd6,"Preston Zen",,,,,,,,
68eafc1870c3754c8,Vgurobotics,,,,,,,,,,,,,,,,,,,,"2025-10-12 00:53:44","2025-10-12 00:53:44",,,,,,,,,68df1d5a1ee3effd6,"Preston Zen",,,,,,,,
68eafc186ea587291,Vermeer,,,,,,,,,,,,,,,,,,,,"2025-10-12 00:53:44","2025-10-12 00:53:44",,,,,,,,,68df1d5a1ee3effd6,"Preston Zen",,,,,,,,
68eafc186c81f069a,"Vataga Drone",,,,,,,,,,,,,,,,,,,,"2025-10-12 00:53:44","2025-10-12 00:53:44",,,,,,,,,68df1d5a1ee3effd6,"Preston Zen",,,,,,,,
68eafc186a66e2db8,"Varta Dronehunter",,,,,,,,,,,,,,,,,,,,"2025-10-12 00:53:44","2025-10-12 00:53:44",,,,,,,,,68df1d5a1ee3effd6,"Preston Zen",,,,,,,,
68eafc18684c90d76,"Vantage Drone Technologies",,,,,,,,,,,,,,,,,,,,"2025-10-12 00:53:44","2025-10-12 00:53:44",,,,,,,,,68df1d5a1ee3effd6,"Preston Zen",,,,,,,,
68eafc18662934c69,UYRIB-1,,,,,,,,,,,,,,,,,,,,"2025-10-12 00:53:44","2025-10-12 00:53:44",,,,,,,,,68df1d5a1ee3effd6,"Preston Zen",,,,,,,,
68eafc1863fede74c,UVCA,,,,,,,,,,,,,,,,,,,,"2025-10-12 00:53:44","2025-10-12 00:53:44",,,,,,,,,68df1d5a1ee3effd6,"Preston Zen",,,,,,,,
68eafc1861cacca3e,"USSC Development",,,,,,,,,,,,,,,,,,,,"2025-10-12 00:53:44","2025-10-12 00:53:44",,,,,,,,,68df1d5a1ee3effd6,"Preston Zen",,,,,,,,
68eafc185f6924a3e,Urasid,,,,,,,,,,,,,,,,,,,,"2025-10-12 00:53:44","2025-10-12 00:53:44",,,,,,,,,68df1d5a1ee3effd6,"Preston Zen",,,,,,,,
68eafc185cd66d9a6,Unwave,,,,,,,,,,,,,,,,,,,,"2025-10-12 00:53:44","2025-10-12 00:53:44",,,,,,,,,68df1d5a1ee3effd6,"Preston Zen",,,,,,,,
68eafc185abfbc119,"Unity Ventures",,,,,,,,,,,,,,,,,,,,"2025-10-12 00:53:44","2025-10-12 00:53:44",,,,,,,,,68df1d5a1ee3effd6,"Preston Zen",,,,,,,,
68eafc1858a76498a,"United Cyber Alliance",,,,,,,,,,,,,,,,,,,,"2025-10-12 00:53:44","2025-10-12 00:53:44",,,,,,,,,68df1d5a1ee3effd6,"Preston Zen",,,,,,,,
68eafc18567fb7fd4,UMP,,,,,,,,,,,,,,,,,,,,"2025-10-12 00:53:44","2025-10-12 00:53:44",,,,,,,,,68df1d5a1ee3effd6,"Preston Zen",,,,,,,,
68eafc18545f1ad99,Ukrtelecom,,,,,,,,,,,,,,,,,,,,"2025-10-12 00:53:44","2025-10-12 00:53:44",,,,,,,,,68df1d5a1ee3effd6,"Preston Zen",,,,,,,,
68eafc18523d76057,UkrSpecSystems,,,,,,,,,,,,,,,,,,,,"2025-10-12 00:53:44","2025-10-12 00:53:44",,,,,,,,,68df1d5a1ee3effd6,"Preston Zen",,,,,,,,
68eafc184fc378ccc,UkrSpecConsulting,,,,,,,,,,,,,,,,,,,,"2025-10-12 00:53:44","2025-10-12 00:53:44",,,,,,,,,68df1d5a1ee3effd6,"Preston Zen",,,,,,,,
68eafc184d3ce3946,Ukropter,,,,,,,,,,,,,,,,,,,,"2025-10-12 00:53:44","2025-10-12 00:53:44",,,,,,,,,68df1d5a1ee3effd6,"Preston Zen",,,,,,,,
68eafc184b09a5900,Ukrgasbank,,,,,,,,,,,,,,,,,,,,"2025-10-12 00:53:44","2025-10-12 00:53:44",,,,,,,,,68df1d5a1ee3effd6,"Preston Zen",,,,,,,,
68eafc1848e9373c1,"Ukrainian Veterans Foundation",,,,,,,,,,,,,,,,,,,,"2025-10-12 00:53:44","2025-10-12 00:53:44",,,,,,,,,68df1d5a1ee3effd6,"Preston Zen",,,,,,,,
68eafc1846b2990a2,"Ukrainian Venture Capital and Private Equity Association",,,,,,,,,,,,,,,,,,,,"2025-10-12 00:53:44","2025-10-12 00:53:44",,,,,,,,,68df1d5a1ee3effd6,"Preston Zen",,,,,,,,
68eafc184472bf590,"Ukrainian Tech Ecosystem",,,,,,,,,,,,,,,,,,,,"2025-10-12 00:53:44","2025-10-12 00:53:44",,,,,,,,,68df1d5a1ee3effd6,"Preston Zen",,,,,,,,
68eafc184225d7413,"Ukrainian Startpu Fund",,,,,,,,,,,,,,,,,,,,"2025-10-12 00:53:44","2025-10-12 00:53:44",,,,,,,,,68df1d5a1ee3effd6,"Preston Zen",,,,,,,,
68eafc183ff7569e1,"Ukrainian Startup Fund",,,,,,,,,,,,,,,,,,,,"2025-10-12 00:53:44","2025-10-12 00:53:44",,,,,,,,,68df1d5a1ee3effd6,"Preston Zen",,,,,,,,
68eafc183dd2692ea,"Ukrainian Navy",,,,,,,,,,,,,,,,,,,,"2025-10-12 00:53:44","2025-10-12 00:53:44",,,,,,,,,68df1d5a1ee3effd6,"Preston Zen",,,,,,,,
68eafc183bb88ac11,"Ukrainian Legal Advisory Group",,,,,,,,,,,,,,,,,,,,"2025-10-12 00:53:44","2025-10-12 00:53:44",,,,,,,,,68df1d5a1ee3effd6,"Preston Zen",,,,,,,,
68eafc1839a1cde20,"Ukrainian League of Industrialists and Enterprenuers (USPP)",,,,,,,,,,,,,,,,,,,,"2025-10-12 00:53:44","2025-10-12 00:53:44",,,,,,,,,68df1d5a1ee3effd6,"Preston Zen",,,,,,,,
68eafc18378f3ddca,"Ukrainian Drone Industry",,,,,,,,,,,,,,,,,,,,"2025-10-12 00:53:44","2025-10-12 00:53:44",,,,,,,,,68df1d5a1ee3effd6,"Preston Zen",,,,,,,,
68eafc1835775475c,"Ukrainian Defense Industry JSC",,,,,,,,,,,,,,,,,,,,"2025-10-12 00:53:44","2025-10-12 00:53:44",,,,,,,,,68df1d5a1ee3effd6,"Preston Zen",,,,,,,,
68eafc1833604b148,"Ukraine Smart Solutions Centre",,,,,,,,,,,,,,,,,,,,"2025-10-12 00:53:44","2025-10-12 00:53:44",,,,,,,,,68df1d5a1ee3effd6,"Preston Zen",,,,,,,,
68eafc18314608953,"Ukraine Reconstruction Business Support Center",,,,,,,,,,,,,,,,,,,,"2025-10-12 00:53:44","2025-10-12 00:53:44",,,,,,,,,68df1d5a1ee3effd6,"Preston Zen",,,,,,,,
68eafc182f1279a70,"Ukranian Armed Forces",,,,,,,,,,,,,,,,,,,,"2025-10-12 00:53:44","2025-10-12 00:53:44",,,,,,,,,68df1d5a1ee3effd6,"Preston Zen",,,,,,,,
68eafc182cfed0de3,"UGV Laboratory",,,,,,,,,,,,,,,,,,,,"2025-10-12 00:53:44","2025-10-12 00:53:44",,,,,,,,,68df1d5a1ee3effd6,"Preston Zen",,,,,,,,
68eafc182ae9473d3,UEDF,,,,,,,,,,,,,,,,,,,,"2025-10-12 00:53:44","2025-10-12 00:53:44",,,,,,,,,68df1d5a1ee3effd6,"Preston Zen",,,,,,,,
68eafc1826a4d5bfb,UAVanguard,,,,,,,,,,,,,,,,,,,,"2025-10-12 00:53:44","2025-10-12 00:53:44",,,,,,,,,68df1d5a1ee3effd6,"Preston Zen",,,,,,,,
68eafc1824840a043,"UAV Robotics",,,,,,,,,,,,,,,,,,,,"2025-10-12 00:53:44","2025-10-12 00:53:44",,,,,,,,,68df1d5a1ee3effd6,"Preston Zen",,,,,,,,
68eafc182263b0318,"UAV Navigation Grupo Oesia",,,,,,,,,,,,,,,,,,,,"2025-10-12 00:53:44","2025-10-12 00:53:44",,,,,,,,,68df1d5a1ee3effd6,"Preston Zen",,,,,,,,
68eafc182048ae147,UADamage,,,,,,,,,,,,,,,,,,,,"2025-10-12 00:53:44","2025-10-12 00:53:44",,,,,,,,,68df1d5a1ee3effd6,"Preston Zen",,,,,,,,
68eafc181e2d67495,"UACranes Pty Ltd",,,,,,,,,,,,,,,,,,,,"2025-10-12 00:53:44","2025-10-12 00:53:44",,,,,,,,,68df1d5a1ee3effd6,"Preston Zen",,,,,,,,
68eafc181c195a361,U-Force,,,,,,,,,,,,,,,,,,,,"2025-10-12 00:53:44","2025-10-12 00:53:44",,,,,,,,,68df1d5a1ee3effd6,"Preston Zen",,,,,,,,
68eafc181a03b1adb,"Twist Robotics Group",,,,,,,,,,,,,,,,,,,,"2025-10-12 00:53:44","2025-10-12 00:53:44",,,,,,,,,68df1d5a1ee3effd6,"Preston Zen",,,,,,,,
68eafc1817f080601,Tritel,,,,,,,,,,,,,,,,,,,,"2025-10-12 00:53:44","2025-10-12 00:53:44",,,,,,,,,68df1d5a1ee3effd6,"Preston Zen",,,,,,,,
68eafc1815ddcf311,"Triniti Robotics",,,,,,,,,,,,,,,,,,,,"2025-10-12 00:53:44","2025-10-12 00:53:44",,,,,,,,,68df1d5a1ee3effd6,"Preston Zen",,,,,,,,
68eafc1813cba39db,"Trade Center",,,,,,,,,,,,,,,,,,,,"2025-10-12 00:53:44","2025-10-12 00:53:44",,,,,,,,,68df1d5a1ee3effd6,"Preston Zen",,,,,,,,
68eafc1811abf4502,TInstrum,,,,,,,,,,,,,,,,,,,,"2025-10-12 00:53:44","2025-10-12 00:53:44",,,,,,,,,68df1d5a1ee3effd6,"Preston Zen",,,,,,,,
68eafc180f91e31dd,"The Fourth Law",,,,,,,,,,,,,,,,,,,,"2025-10-12 00:53:44","2025-10-12 00:53:44",,,,,,,,,68df1d5a1ee3effd6,"Preston Zen",,,,,,,,
68eafc180d7c6ff06,Tencore,,,,,,,,,,,,,,,,,,,,"2025-10-12 00:53:44","2025-10-12 00:53:44",,,,,,,,,68df1d5a1ee3effd6,"Preston Zen",,,,,,,,
68eafc180b6630ae5,Teletactica,,,,,,,,,,,,,,,,,,,,"2025-10-12 00:53:44","2025-10-12 00:53:44",,,,,,,,,68df1d5a1ee3effd6,"Preston Zen",,,,,,,,
68eafc180951b19fe,Techprogresstrade,,,,,,,,,,,,,,,,,,,,"2025-10-12 00:53:44","2025-10-12 00:53:44",,,,,,,,,68df1d5a1ee3effd6,"Preston Zen",,,,,,,,
68eafc180738587f9,TechUkraine,,,,,,,,,,,,,,,,,,,,"2025-10-12 00:53:44","2025-10-12 00:53:44",,,,,,,,,68df1d5a1ee3effd6,"Preston Zen",,,,,,,,
68eafc18052066cd3,Techex,,,,,,,,,,,,,,,,,,,,"2025-10-12 00:53:44","2025-10-12 00:53:44",,,,,,,,,68df1d5a1ee3effd6,"Preston Zen",,,,,,,,
68eafc1800c765cc4,"Tech Startup School",lpnu.ua/tsus,,,Partner,,,,,,,,,,,,,,,"Partners with Kaizen Labs","2025-10-12 00:53:44","2025-10-14 20:12:54",,,,,,,,,68df1d5a1ee3effd6,"Preston Zen",68df1d5a1ee3effd6,"Preston Zen",,,,,,
68eafc17f2d2ecdc5,"Tank Bureau",,,,,,,,,,,,,,,,,,,,"2025-10-12 00:53:43","2025-10-12 00:53:43",,,,,,,,,68df1d5a1ee3effd6,"Preston Zen",,,,,,,,
68eafc17f0bc0ff1d,"TAF Industries",,,,,,,,,,,,,,,,,,,,"2025-10-12 00:53:43","2025-10-12 00:53:43",,,,,,,,,68df1d5a1ee3effd6,"Preston Zen",,,,,,,,
68eafc17ee9c01c10,Swarmer,,,,,,,,,,,,,,,,,,,,"2025-10-12 00:53:43","2025-10-12 00:53:43",,,,,,,,,68df1d5a1ee3effd6,"Preston Zen",,,,,,,,
68eafc17ec74c62ae,Sumyspetspostavka,,,,,,,,,,,,,,,,,,,,"2025-10-12 00:53:43","2025-10-12 00:53:43",,,,,,,,,68df1d5a1ee3effd6,"Preston Zen",,,,,,,,
68eafc17ea399a756,Stetman,,,,,,,,,,,,,,,,,,,,"2025-10-12 00:53:43","2025-10-12 00:53:43",,,,,,,,,68df1d5a1ee3effd6,"Preston Zen",,,,,,,,
68eafc17e7e2f92c3,"Steelfront Group",,,,,,,,,,,,,,,,,,,,"2025-10-12 00:53:43","2025-10-12 00:53:43",,,,,,,,,68df1d5a1ee3effd6,"Preston Zen",,,,,,,,
68eafc17e5d2445bb,"State Authority for Military and Industrial Complex of Ukraine",,,,,,,,,,,,,,,,,,,,"2025-10-12 00:53:43","2025-10-12 00:53:43",,,,,,,,,68df1d5a1ee3effd6,"Preston Zen",,,,,,,,
68eafc17e3c0bd60c,"State Agency of Ukraine",,,,,,,,,,,,,,,,,,,,"2025-10-12 00:53:43","2025-10-12 00:53:43",,,,,,,,,68df1d5a1ee3effd6,"Preston Zen",,,,,,,,
68eafc17e18ed96df,Stark,,,,,,,,,,,,,,,,,,,,"2025-10-12 00:53:43","2025-10-12 00:53:43",,,,,,,,,68df1d5a1ee3effd6,"Preston Zen",,,,,,,,
68eafc17df3799567,Spextr,,,,,,,,,,,,,,,,,,,,"2025-10-12 00:53:43","2025-10-12 00:53:43",,,,,,,,,68df1d5a1ee3effd6,"Preston Zen",,,,,,,,
68eafc17dcf0e58aa,"Special communications",,,,,,,,,,,,,,,,,,,,"2025-10-12 00:53:43","2025-10-12 00:53:43",,,,,,,,,68df1d5a1ee3effd6,"Preston Zen",,,,,,,,
68eafc17daae36156,"Special Communications and Information Protection Service of Ukraine (SSSCIP)",,,,,,,,,,,,,,,,,,,,"2025-10-12 00:53:43","2025-10-12 00:53:43",,,,,,,,,68df1d5a1ee3effd6,"Preston Zen",,,,,,,,
68eafc17d863f7f5d,"SOVA Technologies",,,,,,,,,,,,,,,,,,,,"2025-10-12 00:53:43","2025-10-12 00:53:43",,,,,,,,,68df1d5a1ee3effd6,"Preston Zen",,,,,,,,
68eafc17d621850a8,"Soldiers for Hope - Worldwide",,,,,,,,,,,,,,,,,,,,"2025-10-12 00:53:43","2025-10-12 00:53:43",,,,,,,,,68df1d5a1ee3effd6,"Preston Zen",,,,,,,,
68eafc17d3df3a97f,"Solar Air",,,,,,,,,,,,,,,,,,,,"2025-10-12 00:53:43","2025-10-12 00:53:43",,,,,,,,,68df1d5a1ee3effd6,"Preston Zen",,,,,,,,
68eafc17d19c232ae,"Snake Island Institute",,,,,,,,,,,,,,,,,,,,"2025-10-12 00:53:43","2025-10-12 00:53:43",,,,,,,,,68df1d5a1ee3effd6,"Preston Zen",,,,,,,,
68eafc17cf67cf90e,Smartnova,,,,,,,,,,,,,,,,,,,,"2025-10-12 00:53:43","2025-10-12 00:53:43",,,,,,,,,68df1d5a1ee3effd6,"Preston Zen",,,,,,,,
68eafc17cd333f26f,"Skylum Software",,,,,,,,,,,,,,,,,,,,"2025-10-12 00:53:43","2025-10-12 00:53:43",,,,,,,,,68df1d5a1ee3effd6,"Preston Zen",,,,,,,,
68eafc17cafbbe9ee,SkyRiper,,,,,,,,,,,,,,,,,,,,"2025-10-12 00:53:43","2025-10-12 00:53:43",,,,,,,,,68df1d5a1ee3effd6,"Preston Zen",,,,,,,,
68eafc17c8caebba0,Skygrids,,,,,,,,,,,,,,,,,,,,"2025-10-12 00:53:43","2025-10-12 00:53:43",,,,,,,,,68df1d5a1ee3effd6,"Preston Zen",,,,,,,,
68eafc17c69b48b70,Skyfall,,,,,,,,,,,,,,,,,,,,"2025-10-12 00:53:43","2025-10-12 00:53:43",,,,,,,,,68df1d5a1ee3effd6,"Preston Zen",,,,,,,,
68eafc17c44e45df4,Skyeton,,,,,,,,,,,,,,,,,,,,"2025-10-12 00:53:43","2025-10-12 00:53:43",,,,,,,,,68df1d5a1ee3effd6,"Preston Zen",,,,,,,,
68eafc17c20808c3a,"Sky Assist",,,,,,,,,,,,,,,,,,,,"2025-10-12 00:53:43","2025-10-12 00:53:43",,,,,,,,,68df1d5a1ee3effd6,"Preston Zen",,,,,,,,
68eafc17bfce815bb,Skiftech,,,,,,,,,,,,,,,,,,,,"2025-10-12 00:53:43","2025-10-12 00:53:43",,,,,,,,,68df1d5a1ee3effd6,"Preston Zen",,,,,,,,
68eafc17bd9f7f8ef,"Sine Engineering",,,,,,,,,,,,,,,,,,,,"2025-10-12 00:53:43","2025-10-12 00:53:43",,,,,,,,,68df1d5a1ee3effd6,"Preston Zen",,,,,,,,
68eafc17bb6e49033,Simple-Kit,,,,,,,,,,,,,,,,,,,,"2025-10-12 00:53:43","2025-10-12 00:53:43",,,,,,,,,68df1d5a1ee3effd6,"Preston Zen",,,,,,,,
68eafc17b923b8af8,"Silvus Technologies",,,,,,,,,,,,,,,,,,,,"2025-10-12 00:53:43","2025-10-12 00:53:43",,,,,,,,,68df1d5a1ee3effd6,"Preston Zen",,,,,,,,
68eafc17b6d4a2385,"Sikorsky Challenge Incubator",,,,,,,,,,,,,,,,,,,,"2025-10-12 00:53:43","2025-10-12 00:53:43",,,,,,,,,68df1d5a1ee3effd6,"Preston Zen",,,,,,,,
68eafc17b4a661232,Siderunner,,,,,,,,,,,,,,,,,,,,"2025-10-12 00:53:43","2025-10-12 00:53:43",,,,,,,,,68df1d5a1ee3effd6,"Preston Zen",,,,,,,,
68eafc17b278ef596,Shersh,,,,,,,,,,,,,,,,,,,,"2025-10-12 00:53:43","2025-10-12 00:53:43",,,,,,,,,68df1d5a1ee3effd6,"Preston Zen",,,,,,,,
68eafc17b0462985c,"Serotonin Hacking",,,,,,,,,,,,,,,,,,,,"2025-10-12 00:53:43","2025-10-12 00:53:43",,,,,,,,,68df1d5a1ee3effd6,"Preston Zen",,,,,,,,
68eafc17ae1369022,"Serhiy Prytula Charity Foundation",,,,,,,,,,,,,,,,,,,,"2025-10-12 00:53:43","2025-10-12 00:53:43",,,,,,,,,68df1d5a1ee3effd6,"Preston Zen",,,,,,,,
68eafc17abd5dc7cb,"Sea drones solutions",,,,,,,,,,,,,,,,,,,,"2025-10-12 00:53:43","2025-10-12 00:53:43",,,,,,,,,68df1d5a1ee3effd6,"Preston Zen",,,,,,,,
68eafc17a9a48076f,"Scylon Technology Limited",,,,,,,,,,,,,,,,,,,,"2025-10-12 00:53:43","2025-10-12 00:53:43",,,,,,,,,68df1d5a1ee3effd6,"Preston Zen",,,,,,,,
68eafc17a76fd1503,Savada,,,,,,,,,,,,,,,,,,,,"2025-10-12 00:53:43","2025-10-12 00:53:43",,,,,,,,,68df1d5a1ee3effd6,"Preston Zen",,,,,,,,
68eafc17a54135f55,Salutem,,,,,,,,,,,,,,,,,,,,"2025-10-12 00:53:43","2025-10-12 00:53:43",,,,,,,,,68df1d5a1ee3effd6,"Preston Zen",,,,,,,,
68eafc17a3077781e,SACSA,,,,,,,,,,,,,,,,,,,,"2025-10-12 00:53:43","2025-10-12 00:53:43",,,,,,,,,68df1d5a1ee3effd6,"Preston Zen",,,,,,,,
68eafc17a0d8e5ddc,Rovertech,,,,,,,,,,,,,,,,,,,,"2025-10-12 00:53:43","2025-10-12 00:53:43",,,,,,,,,68df1d5a1ee3effd6,"Preston Zen",,,,,,,,
68eafc179ea31ee88,Roboneers,,,,,,,,,,,,,,,,,,,,"2025-10-12 00:53:43","2025-10-12 00:53:43",,,,,,,,,68df1d5a1ee3effd6,"Preston Zen",,,,,,,,
68eafc179c7353ebf,"Rise Technologies Ukraine",,,,,,,,,,,,,,,,,,,,"2025-10-12 00:53:43","2025-10-12 00:53:43",,,,,,,,,68df1d5a1ee3effd6,"Preston Zen",,,,,,,,
68eafc179a3a51883,Remtechnology,,,,,,,,,,,,,,,,,,,,"2025-10-12 00:53:43","2025-10-12 00:53:43",,,,,,,,,68df1d5a1ee3effd6,"Preston Zen",,,,,,,,
68eafc17980fede05,reface.ai,,,,,,,,,,,,,,,,,,,,"2025-10-12 00:53:43","2025-10-12 00:53:43",,,,,,,,,68df1d5a1ee3effd6,"Preston Zen",,,,,,,,
68eafc1795f0abb10,Ratel,,,,,,,,,,,,,,,,,,,,"2025-10-12 00:53:43","2025-10-12 00:53:43",,,,,,,,,68df1d5a1ee3effd6,"Preston Zen",,,,,,,,
68eafc1793d2400c9,"Quantum International Group",,,,,,,,,,,,,,,,,,,,"2025-10-12 00:53:43","2025-10-12 00:53:43",,,,,,,,,68df1d5a1ee3effd6,"Preston Zen",,,,,,,,
68eafc1791b24d0f6,"Prytula Foundation",,,,,,,,,,,,,,,,,,,,"2025-10-12 00:53:43","2025-10-12 00:53:43",,,,,,,,,68df1d5a1ee3effd6,"Preston Zen",,,,,,,,
68eafc178f8c13f54,"Prusa Research",,,,,,,,,,,,,,,,,,,,"2025-10-12 00:53:43","2025-10-12 00:53:43",,,,,,,,,68df1d5a1ee3effd6,"Preston Zen",,,,,,,,
68eafc178d6b2956d,Proton,,,,,,,,,,,,,,,,,,,,"2025-10-12 00:53:43","2025-10-12 00:53:43",,,,,,,,,68df1d5a1ee3effd6,"Preston Zen",,,,,,,,
68eafc178b4205232,Protas,,,,,,,,,,,,,,,,,,,,"2025-10-12 00:53:43","2025-10-12 00:53:43",,,,,,,,,68df1d5a1ee3effd6,"Preston Zen",,,,,,,,
68eafc178912a7c46,"Promethion Industries Berlin",,,,,,,,,,,,,,,,,,,,"2025-10-12 00:53:43","2025-10-12 00:53:43",,,,,,,,,68df1d5a1ee3effd6,"Preston Zen",,,,,,,,
68eafc1786dfc7f05,"Private Investor",,,,,,,,,,,,,,,,,,,,"2025-10-12 00:53:43","2025-10-12 00:53:43",,,,,,,,,68df1d5a1ee3effd6,"Preston Zen",,,,,,,,
68eafc1784c23998a,Povernerms,,,,,,,,,,,,,,,,,,,,"2025-10-12 00:53:43","2025-10-12 00:53:43",,,,,,,,,68df1d5a1ee3effd6,"Preston Zen",,,,,,,,
68eafc1782a8706e3,"Polish-Ukrainian Chamber of Commerce",,,,,,,,,,,,,,,,,,,,"2025-10-12 00:53:43","2025-10-12 00:53:43",,,,,,,,,68df1d5a1ee3effd6,"Preston Zen",,,,,,,,
68eafc17808d44007,"Polaris Technology",,,,,,,,,,,,,,,,,,,,"2025-10-12 00:53:43","2025-10-12 00:53:43",,,,,,,,,68df1d5a1ee3effd6,"Preston Zen",,,,,,,,
68eafc177e7117fcd,"Plain Aero",,,,,,,,,,,,,,,,,,,,"2025-10-12 00:53:43","2025-10-12 00:53:43",,,,,,,,,68df1d5a1ee3effd6,"Preston Zen",,,,,,,,
68eafc177c3ee4f37,Perun,,,,,,,,,,,,,,,,,,,,"2025-10-12 00:53:43","2025-10-12 00:53:43",,,,,,,,,68df1d5a1ee3effd6,"Preston Zen",,,,,,,,
68eafc177a1092cee,"Pegasus Arms",,,,,,,,,,,,,,,,,,,,"2025-10-12 00:53:43","2025-10-12 00:53:43",,,,,,,,,68df1d5a1ee3effd6,"Preston Zen",,,,,,,,
68eafc1777e0068a8,"Pedigree Group",,,,,,,,,,,,,,,,,,,,"2025-10-12 00:53:43","2025-10-12 00:53:43",,,,,,,,,68df1d5a1ee3effd6,"Preston Zen",,,,,,,,
68eafc1775bab546b,"Pawell Power",,,,,,,,,,,,,,,,,,,,"2025-10-12 00:53:43","2025-10-12 00:53:43",,,,,,,,,68df1d5a1ee3effd6,"Preston Zen",,,,,,,,
68eafc17739b62aeb,"Parrot Drones",,,,,,,,,,,,,,,,,,,,"2025-10-12 00:53:43","2025-10-12 00:53:43",,,,,,,,,68df1d5a1ee3effd6,"Preston Zen",,,,,,,,
68eafc17717eb81b1,"Palladin Drones",,,,,,,,,,,,,,,,,,,,"2025-10-12 00:53:43","2025-10-12 00:53:43",,,,,,,,,68df1d5a1ee3effd6,"Preston Zen",,,,,,,,
68eafc176f30256ff,"Owl Tech Systems",,,,,,,,,,,,,,,,,,,,"2025-10-12 00:53:43","2025-10-12 00:53:43",,,,,,,,,68df1d5a1ee3effd6,"Preston Zen",,,,,,,,
68eafc176b4c1132a,Orbotix,,,,,,,,,,,,,,,,,,,,"2025-10-12 00:53:43","2025-10-12 00:53:43",,,,,,,,,68df1d5a1ee3effd6,"Preston Zen",,,,,,,,
68eafc1769179ec4b,Omela,,,,,,,,,,,,,,,,,,,,"2025-10-12 00:53:43","2025-10-12 00:53:43",,,,,,,,,68df1d5a1ee3effd6,"Preston Zen",,,,,,,,
68eafc1765fef1a05,Omelas,,,,,,,,,,,,,,,,,,,,"2025-10-12 00:53:43","2025-10-12 00:53:43",,,,,,,,,68df1d5a1ee3effd6,"Preston Zen",,,,,,,,
68eafc1763cb98d0b,"Oko Camera",,,,,,,,,,,,,,,,,,,,"2025-10-12 00:53:43","2025-10-12 00:53:43",,,,,,,,,68df1d5a1ee3effd6,"Preston Zen",,,,,,,,
68eafc176193b5d8d,OCHA,,,,,,,,,,,,,,,,,,,,"2025-10-12 00:53:43","2025-10-12 00:53:43",,,,,,,,,68df1d5a1ee3effd6,"Preston Zen",,,,,,,,
68eafc175f57def11,"Objective Ukraine",,,,,,,,,,,,,,,,,,,,"2025-10-12 00:53:43","2025-10-12 00:53:43",,,,,,,,,68df1d5a1ee3effd6,"Preston Zen",,,,,,,,
68eafc175d1fb3011,"Northern Defense Investment Horizon",,,,,,,,,,,,,,,,,,,,"2025-10-12 00:53:43","2025-10-12 00:53:43",,,,,,,,,68df1d5a1ee3effd6,"Preston Zen",,,,,,,,
68eafc175ae0a0794,"Norda Dynamics",,,,,,,,,,,,,,,,,,,,"2025-10-12 00:53:43","2025-10-12 00:53:43",,,,,,,,,68df1d5a1ee3effd6,"Preston Zen",,,,,,,,
68eafc175657595ac,"NMG Group",,,,,,,,,,,,,,,,,,,,"2025-10-12 00:53:43","2025-10-12 00:53:43",,,,,,,,,68df1d5a1ee3effd6,"Preston Zen",,,,,,,,
68eafc17541f779a1,"Niemi Services Ltd",,,,,,,,,,,,,,,,,,,,"2025-10-12 00:53:43","2025-10-12 00:53:43",,,,,,,,,68df1d5a1ee3effd6,"Preston Zen",,,,,,,,
68eafc174f4c04188,"Newforces Technology Park",,,,,,,,,,,,,,,,,,,,"2025-10-12 00:53:43","2025-10-12 00:53:43",,,,,,,,,68df1d5a1ee3effd6,"Preston Zen",,,,,,,,
68eafc174d12144e2,"Neros Inc",,,,,,,,,,,,,,,,,,,,"2025-10-12 00:53:43","2025-10-12 00:53:43",,,,,,,,,68df1d5a1ee3effd6,"Preston Zen",,,,,,,,
68eafc174ad86a9c1,Neon,,,,,,,,,,,,,,,,,,,,"2025-10-12 00:53:43","2025-10-12 00:53:43",,,,,,,,,68df1d5a1ee3effd6,"Preston Zen",,,,,,,,
68eafc17489d89fc6,Nejet,,,,,,,,,,,,,,,,,,,,"2025-10-12 00:53:43","2025-10-12 00:53:43",,,,,,,,,68df1d5a1ee3effd6,"Preston Zen",,,,,,,,
68eafc17466114b67,Nect,,,,,,,,,,,,,,,,,,,,"2025-10-12 00:53:43","2025-10-12 00:53:43",,,,,,,,,68df1d5a1ee3effd6,"Preston Zen",,,,,,,,
68eafc1744275f690,"NATO DEEP eAcademy",,,,,,,,,,,,,,,,,,,,"2025-10-12 00:53:43","2025-10-12 00:53:43",,,,,,,,,68df1d5a1ee3effd6,"Preston Zen",,,,,,,,
68eafc1741eb0ee8b,"National Technical University of Ukraine (KPI)",,,,,,,,,,,,,,,,,,,,"2025-10-12 00:53:43","2025-10-12 00:53:43",,,,,,,,,68df1d5a1ee3effd6,"Preston Zen",,,,,,,,
68eafc173f9a41e63,"National Bank of Ukraine NBU",,,,,,,,,,,,,,,,,,,,"2025-10-12 00:53:43","2025-10-12 00:53:43",,,,,,,,,68df1d5a1ee3effd6,"Preston Zen",,,,,,,,
68eafc173d520c7b8,Myloserddya,,,,,,,,,,,,,,,,,,,,"2025-10-12 00:53:43","2025-10-12 00:53:43",,,,,,,,,68df1d5a1ee3effd6,"Preston Zen",,,,,,,,
68eafc173b0b929e9,MyDefence,,,,,,,,,,,,,,,,,,,,"2025-10-12 00:53:43","2025-10-12 00:53:43",,,,,,,,,68df1d5a1ee3effd6,"Preston Zen",,,,,,,,
68eafc1738cdf89be,"Murena System",,,,,,,,,,,,,,,,,,,,"2025-10-12 00:53:43","2025-10-12 00:53:43",,,,,,,,,68df1d5a1ee3effd6,"Preston Zen",,,,,,,,
68eafc1736996e5d0,"Mriya 4.5.0",,,,,,,,,,,,,,,,,,,,"2025-10-12 00:53:43","2025-10-12 00:53:43",,,,,,,,,68df1d5a1ee3effd6,"Preston Zen",,,,,,,,
68eafc173465fbe43,MPS,,,,,,,,,,,,,,,,,,,,"2025-10-12 00:53:43","2025-10-12 00:53:43",,,,,,,,,68df1d5a1ee3effd6,"Preston Zen",,,,,,,,
68eafc173231f2953,"Move One",,,,,,,,,,,,,,,,,,,,"2025-10-12 00:53:43","2025-10-12 00:53:43",,,,,,,,,68df1d5a1ee3effd6,"Preston Zen",,,,,,,,
68eafc172ffac7700,Monobank,,,,,,,,,,,,,,,,,,,,"2025-10-12 00:53:43","2025-10-12 00:53:43",,,,,,,,,68df1d5a1ee3effd6,"Preston Zen",,,,,,,,
68eafc172dc65f6ce,Molfar,,,,,,,,,,,,,,,,,,,,"2025-10-12 00:53:43","2025-10-12 00:53:43",,,,,,,,,68df1d5a1ee3effd6,"Preston Zen",,,,,,,,
68eafc172b90a68ad,"Moby Holding Corp",,,,,,,,,,,,,,,,,,,,"2025-10-12 00:53:43","2025-10-12 00:53:43",,,,,,,,,68df1d5a1ee3effd6,"Preston Zen",,,,,,,,
68eafc17293ad2654,Mixsteel,,,,,,,,,,,,,,,,,,,,"2025-10-12 00:53:43","2025-10-12 00:53:43",,,,,,,,,68df1d5a1ee3effd6,"Preston Zen",,,,,,,,
68eafc17270197d97,"Ministry of Strategic Industries of Ukraine",,,,,,,,,,,,,,,,,,,,"2025-10-12 00:53:43","2025-10-12 00:53:43",,,,,,,,,68df1d5a1ee3effd6,"Preston Zen",,,,,,,,
68eafc1724a3fefd8,"Ministry of Education and Science of Ukraine",,,,,,,,,,,,,,,,,,,,"2025-10-12 00:53:43","2025-10-12 00:53:43",,,,,,,,,68df1d5a1ee3effd6,"Preston Zen",,,,,,,,
68eafc17226e1f85c,"Ministry of Digital Transformation of Ukraine",,,,,,,,,,,,,,,,,,,,"2025-10-12 00:53:43","2025-10-12 00:53:43",,,,,,,,,68df1d5a1ee3effd6,"Preston Zen",,,,,,,,
68eafc171de4c0fd9,"Ministry of Defense of Ukraine (International Cooperation Dept)",,,,,,,,,,,,,,,,,,,,"2025-10-12 00:53:43","2025-10-12 00:53:43",,,,,,,,,68df1d5a1ee3effd6,"Preston Zen",,,,,,,,
68eafc171bac90320,"Ministry of Defense of Ukraine (Department for Experimental Development)",,,,,,,,,,,,,,,,,,,,"2025-10-12 00:53:43","2025-10-12 00:53:43",,,,,,,,,68df1d5a1ee3effd6,"Preston Zen",,,,,,,,
68eafc171723cb236,"Ministry of Defense of Serbia",,,,,,,,,,,,,,,,,,,,"2025-10-12 00:53:43","2025-10-12 00:53:43",,,,,,,,,68df1d5a1ee3effd6,"Preston Zen",,,,,,,,
68eafc1714e7111b0,Military,,,,,,,,,,,,,,,,,,,,"2025-10-12 00:53:43","2025-10-12 00:53:43",,,,,,,,,68df1d5a1ee3effd6,"Preston Zen",,,,,,,,
68eafc1712ae6e9f1,Milkor,,,,,,,,,,,,,,,,,,,,"2025-10-12 00:53:43","2025-10-12 00:53:43",,,,,,,,,68df1d5a1ee3effd6,"Preston Zen",,,,,,,,
68eafc17109367fc1,"Midgard Dynamics",,,,,,,,,,,,,,,,,,,,"2025-10-12 00:53:43","2025-10-12 00:53:43",,,,,,,,,68df1d5a1ee3effd6,"Preston Zen",,,,,,,,
68eafc170e3c8954c,"Mauka Technology",,,,,,,,,,,,,,,,,,,,"2025-10-12 00:53:43","2025-10-12 00:53:43",,,,,,,,,68df1d5a1ee3effd6,"Preston Zen",,,,,,,,
68eafc170bfe28044,Mathesis,,,,,,,,,,,,,,,,,,,,"2025-10-12 00:53:43","2025-10-12 00:53:43",,,,,,,,,68df1d5a1ee3effd6,"Preston Zen",,,,,,,,
68eafc1709c4d680e,"Manufacturing of Rubber Products and Components for Machinery",,,,,,,,,,,,,,,,,,,,"2025-10-12 00:53:43","2025-10-12 00:53:43",,,,,,,,,68df1d5a1ee3effd6,"Preston Zen",,,,,,,,
68eafc17078862600,"Magicians' Foundation",,,,,,,,,,,,,,,,,,,,"2025-10-12 00:53:43","2025-10-12 00:53:43",,,,,,,,,68df1d5a1ee3effd6,"Preston Zen",,,,,,,,
68eafc170555c5cb7,"LynkSpiders Technologies",,,,,,,,,,,,,,,,,,,,"2025-10-12 00:53:43","2025-10-12 00:53:43",,,,,,,,,68df1d5a1ee3effd6,"Preston Zen",,,,,,,,
68eafc1703252d07a,LvBS,,,,,,,,,,,,,,,,,,,,"2025-10-12 00:53:43","2025-10-12 00:53:43",,,,,,,,,68df1d5a1ee3effd6,"Preston Zen",,,,,,,,
68eafc1700f17200f,"Lviv Tech Angels Club / Global Ukraine",,,,,,,,,,,,,,,,,,,,"2025-10-12 00:53:43","2025-10-12 00:53:43",,,,,,,,,68df1d5a1ee3effd6,"Preston Zen",,,,,,,,
68eafc16f2def16d1,"Lviv Polytechnic University",,,,,,,,,,,,,,,,,,,,"2025-10-12 00:53:42","2025-10-12 00:53:42",,,,,,,,,68df1d5a1ee3effd6,"Preston Zen",,,,,,,,
68eafc16f0a776e22,"Lviv Media Forum",,,,,,,,,,,,,,,,,,,,"2025-10-12 00:53:42","2025-10-12 00:53:42",,,,,,,,,68df1d5a1ee3effd6,"Preston Zen",,,,,,,,
68eafc16ee7336c09,"Lviv IT Cluster",,,,,,,,,,,,,,,,,,,,"2025-10-12 00:53:42","2025-10-12 00:53:42",,,,,,,,,68df1d5a1ee3effd6,"Preston Zen",,,,,,,,
68eafc16ec3f98a1b,"LUN Foundation",,,,,,,,,,,,,,,,,,,,"2025-10-12 00:53:42","2025-10-12 00:53:42",,,,,,,,,68df1d5a1ee3effd6,"Preston Zen",,,,,,,,
68eafc16ea0f50c27,"Logics 7",,,,,,,,,,,,,,,,,,,,"2025-10-12 00:53:42","2025-10-12 00:53:42",,,,,,,,,68df1d5a1ee3effd6,"Preston Zen",,,,,,,,
68eafc16e7dbee95c,Lehan,,,,,,,,,,,,,,,,,,,,"2025-10-12 00:53:42","2025-10-12 00:53:42",,,,,,,,,68df1d5a1ee3effd6,"Preston Zen",,,,,,,,
68eafc16e5a82ed73,"Latent AI",,,,,,,,,,,,,,,,,,,,"2025-10-12 00:53:42","2025-10-12 00:53:42",,,,,,,,,68df1d5a1ee3effd6,"Preston Zen",,,,,,,,
68eafc16e36cfccf0,LaunchpadUA,,,,,,,,,,,,,,,,,,,,"2025-10-12 00:53:42","2025-10-12 00:53:42",,,,,,,,,68df1d5a1ee3effd6,"Preston Zen",,,,,,,,
68eafc16e130ec246,"KyPartners Attorneys and Counselors at Law",,,,,,,,,,,,,,,,,,,,"2025-10-12 00:53:42","2025-10-12 00:53:42",,,,,,,,,68df1d5a1ee3effd6,"Preston Zen",,,,,,,,
68eafc16def8546fe,"Kyiv Polytechnic Institute",,,,,,,,,,,,,,,,,,,,"2025-10-12 00:53:42","2025-10-12 00:53:42",,,,,,,,,68df1d5a1ee3effd6,"Preston Zen",,,,,,,,
68eafc16dcc269f74,"Kyiv City Council",,,,,,,,,,,,,,,,,,,,"2025-10-12 00:53:42","2025-10-12 00:53:42",,,,,,,,,68df1d5a1ee3effd6,"Preston Zen",,,,,,,,
68eafc16d831cf2c9,"Kvantum Technologies AS",,,,,,,,,,,,,,,,,,,,"2025-10-12 00:53:42","2025-10-12 00:53:42",,,,,,,,,68df1d5a1ee3effd6,"Preston Zen",,,,,,,,
68eafc16d5fa05f27,Kvertus,,,,,,,,,,,,,,,,,,,,"2025-10-12 00:53:42","2025-10-12 00:53:42",,,,,,,,,68df1d5a1ee3effd6,"Preston Zen",,,,,,,,
68eafc16d3c537036,Kryptech,,,,,,,,,,,,,,,,,,,,"2025-10-12 00:53:42","2025-10-12 00:53:42",,,,,,,,,68df1d5a1ee3effd6,"Preston Zen",,,,,,,,
68eafc16d189024f9,KryptTech,,,,,,,,,,,,,,,,,,,,"2025-10-12 00:53:42","2025-10-12 00:53:42",,,,,,,,,68df1d5a1ee3effd6,"Preston Zen",,,,,,,,
68eafc16cf4fc9569,Kray,,,,,,,,,,,,,,,,,,,,"2025-10-12 00:53:42","2025-10-12 00:53:42",,,,,,,,,68df1d5a1ee3effd6,"Preston Zen",,,,,,,,
68eafc16cd0bdcf87,"Kharkiv IT CLUSTER",,,,,,,,,,,,,,,,,,,,"2025-10-12 00:53:42","2025-10-12 00:53:42",,,,,,,,,68df1d5a1ee3effd6,"Preston Zen",,,,,,,,
68eafc16cace85b4f,"Kennan Institute / Wilson Center",,,,,,,,,,,,,,,,,,,,"2025-10-12 00:53:42","2025-10-12 00:53:42",,,,,,,,,68df1d5a1ee3effd6,"Preston Zen",,,,,,,,
68eafc16c89b4457c,"Kara Dag Technologies",,,,,,,,,,,,,,,,,,,,"2025-10-12 00:53:42","2025-10-12 00:53:42",,,,,,,,,68df1d5a1ee3effd6,"Preston Zen",,,,,,,,
68eafc16c6626b8df,Jet,,,,,,,,,,,,,,,,,,,,"2025-10-12 00:53:42","2025-10-12 00:53:42",,,,,,,,,68df1d5a1ee3effd6,"Preston Zen",,,,,,,,
68eafc16c42bb2725,"Iron Belly",,,,,,,,,,,,,,,,,,,,"2025-10-12 00:53:42","2025-10-12 00:53:42",,,,,,,,,68df1d5a1ee3effd6,"Preston Zen",,,,,,,,
68eafc16c1d263b76,"International UAV Committee",,,,,,,,,,,,,,,,,,,,"2025-10-12 00:53:42","2025-10-12 00:53:42",,,,,,,,,68df1d5a1ee3effd6,"Preston Zen",,,,,,,,
68eafc16bee886e9f,"International Centre for Defence and Security",,,,,,,,,,,,,,,,,,,,"2025-10-12 00:53:42","2025-10-12 00:53:42",,,,,,,,,68df1d5a1ee3effd6,"Preston Zen",,,,,,,,
68eafc16bcd410127,"International Aviation Cluster of Ukraine",,,,,,,,,,,,,,,,,,,,"2025-10-12 00:53:42","2025-10-12 00:53:42",,,,,,,,,68df1d5a1ee3effd6,"Preston Zen",,,,,,,,
68eafc16bac13dbfe,IntegraSys,,,,,,,,,,,,,,,,,,,,"2025-10-12 00:53:42","2025-10-12 00:53:42",,,,,,,,,68df1d5a1ee3effd6,"Preston Zen",,,,,,,,
68eafc16b8ad9c4e8,"Institute of Hygiene Ecology and Sanitation",,,,,,,,,,,,,,,,,,,,"2025-10-12 00:53:42","2025-10-12 00:53:42",,,,,,,,,68df1d5a1ee3effd6,"Preston Zen",,,,,,,,
68eafc16b69c0f12a,"Inspiring Sky",,,,,,,,,,,,,,,,,,,,"2025-10-12 00:53:42","2025-10-12 00:53:42",,,,,,,,,68df1d5a1ee3effd6,"Preston Zen",,,,,,,,
68eafc16b4888d341,Innateks,,,,,,,,,,,,,,,,,,,,"2025-10-12 00:53:42","2025-10-12 00:53:42",,,,,,,,,68df1d5a1ee3effd6,"Preston Zen",,,,,,,,
68eafc16b275899f8,Infozahyst,,,,,,,,,,,,,,,,,,,,"2025-10-12 00:53:42","2025-10-12 00:53:42",,,,,,,,,68df1d5a1ee3effd6,"Preston Zen",,,,,,,,
68eafc16b063fce40,Infopulse,,,,,,,,,,,,,,,,,,,,"2025-10-12 00:53:42","2025-10-12 00:53:42",,,,,,,,,68df1d5a1ee3effd6,"Preston Zen",,,,,,,,
68eafc16ae518d9ab,"Indigo Protect Solutions",,,,,,,,,,,,,,,,,,,,"2025-10-12 00:53:42","2025-10-12 00:53:42",,,,,,,,,68df1d5a1ee3effd6,"Preston Zen",,,,,,,,
68eafc16ac390d28c,"INTEL Foundation",,,,,,,,,,,,,,,,,,,,"2025-10-12 00:53:42","2025-10-12 00:53:42",,,,,,,,,68df1d5a1ee3effd6,"Preston Zen",,,,,,,,
68eafc16aa26a17f6,"INDUSTRIAL BUREAU UGVs",,,,,,,,,,,,,,,,,,,,"2025-10-12 00:53:42","2025-10-12 00:53:42",,,,,,,,,68df1d5a1ee3effd6,"Preston Zen",,,,,,,,
68eafc16a8128c581,"Hurkit Engineering",,,,,,,,,,,,,,,,,,,,"2025-10-12 00:53:42","2025-10-12 00:53:42",,,,,,,,,68df1d5a1ee3effd6,"Preston Zen",,,,,,,,
68eafc16a60031ecf,Huless,,,,,,,,,,,,,,,,,,,,"2025-10-12 00:53:42","2025-10-12 00:53:42",,,,,,,,,68df1d5a1ee3effd6,"Preston Zen",,,,,,,,
68eafc16a3edfe612,Hospitallers,,,,,,,,,,,,,,,,,,,,"2025-10-12 00:53:42","2025-10-12 00:53:42",,,,,,,,,68df1d5a1ee3effd6,"Preston Zen",,,,,,,,
68eafc16a1dd05942,"Horizon Investments",,,,,,,,,,,,,,,,,,,,"2025-10-12 00:53:42","2025-10-12 00:53:42",,,,,,,,,68df1d5a1ee3effd6,"Preston Zen",,,,,,,,
68eafc169fcd955f5,Himera,,,,,,,,,,,,,,,,,,,,"2025-10-12 00:53:42","2025-10-12 00:53:42",,,,,,,,,68df1d5a1ee3effd6,"Preston Zen",,,,,,,,
68eafc169dbafdb09,"HESTIA Fund",,,,,,,,,,,,,,,,,,,,"2025-10-12 00:53:42","2025-10-12 00:53:42",,,,,,,,,68df1d5a1ee3effd6,"Preston Zen",,,,,,,,
68eafc169ba4864fc,"H2L Robotics",,,,,,,,,,,,,,,,,,,,"2025-10-12 00:53:42","2025-10-12 00:53:42",,,,,,,,,68df1d5a1ee3effd6,"Preston Zen",,,,,,,,
68eafc169990319f7,"Gurzuf Defence",,,,,,,,,,,,,,,,,,,,"2025-10-12 00:53:42","2025-10-12 00:53:42",,,,,,,,,68df1d5a1ee3effd6,"Preston Zen",,,,,,,,
68eafc169770487d8,"GRES (Part of the UA Army)",,,,,,,,,,,,,,,,,,,,"2025-10-12 00:53:42","2025-10-12 00:53:42",,,,,,,,,68df1d5a1ee3effd6,"Preston Zen",,,,,,,,
68eafc169553f5b52,"Greenwood Point Ventures",,,,,,,,,,,,,,,,,,,,"2025-10-12 00:53:42","2025-10-12 00:53:42",,,,,,,,,68df1d5a1ee3effd6,"Preston Zen",,,,,,,,
68eafc16933d57725,"Greenstone Capital / Kharkiv IT CLUSTER",,,,,,,,,,,,,,,,,,,,"2025-10-12 00:53:42","2025-10-12 00:53:42",,,,,,,,,68df1d5a1ee3effd6,"Preston Zen",,,,,,,,
68eafc16912769205,"Greek Defense Fund",,,,,,,,,,,,,,,,,,,,"2025-10-12 00:53:42","2025-10-12 00:53:42",,,,,,,,,68df1d5a1ee3effd6,"Preston Zen",,,,,,,,
68eafc168f0c9fac9,"Global Reach Alliance",,,,,,,,,,,,,,,,,,,,"2025-10-12 00:53:42","2025-10-12 00:53:42",,,,,,,,,68df1d5a1ee3effd6,"Preston Zen",,,,,,,,
68eafc168cf3c7650,Gidra,,,,,,,,,,,,,,,,,,,,"2025-10-12 00:53:42","2025-10-12 00:53:42",,,,,,,,,68df1d5a1ee3effd6,"Preston Zen",,,,,,,,
68eafc168ad79c49f,"Gesheft 2022",,,,,,,,,,,,,,,,,,,,"2025-10-12 00:53:42","2025-10-12 00:53:42",,,,,,,,,68df1d5a1ee3effd6,"Preston Zen",,,,,,,,
68eafc1688b9a7acc,"General Cherry",,,,,,,,,,,,,,,,,,,,"2025-10-12 00:53:42","2025-10-12 00:53:42",,,,,,,,,68df1d5a1ee3effd6,"Preston Zen",,,,,,,,
68eafc16869e28104,"Gava UAV",,,,,,,,,,,,,,,,,,,,"2025-10-12 00:53:42","2025-10-12 00:53:42",,,,,,,,,68df1d5a1ee3effd6,"Preston Zen",,,,,,,,
68eafc16847dd6459,Gasgeneratorbau,,,,,,,,,,,,,,,,,,,,"2025-10-12 00:53:42","2025-10-12 00:53:42",,,,,,,,,68df1d5a1ee3effd6,"Preston Zen",,,,,,,,
68eafc16826459d0c,"Fulltime Robotics",,,,,,,,,,,,,,,,,,,,"2025-10-12 00:53:42","2025-10-12 00:53:42",,,,,,,,,68df1d5a1ee3effd6,"Preston Zen",,,,,,,,
68eafc16804a93d00,Frontline,,,,,,,,,,,,,,,,,,,,"2025-10-12 00:53:42","2025-10-12 00:53:42",,,,,,,,,68df1d5a1ee3effd6,"Preston Zen",,,,,,,,
68eafc167e362845d,FRDM,,,,,,,,,,,,,,,,,,,,"2025-10-12 00:53:42","2025-10-12 00:53:42",,,,,,,,,68df1d5a1ee3effd6,"Preston Zen",,,,,,,,
68eafc167c1f764d6,"Franke Family Enterprises",,,,,,,,,,,,,,,,,,,,"2025-10-12 00:53:42","2025-10-12 00:53:42",,,,,,,,,68df1d5a1ee3effd6,"Preston Zen",,,,,,,,
68eafc167a0b35bfc,Frakkefabrikken,,,,,,,,,,,,,,,,,,,,"2025-10-12 00:53:42","2025-10-12 00:53:42",,,,,,,,,68df1d5a1ee3effd6,"Preston Zen",,,,,,,,
68eafc1677f3913b4,Foundation.WORLD,,,,,,,,,,,,,,,,,,,,"2025-10-12 00:53:42","2025-10-12 00:53:42",,,,,,,,,68df1d5a1ee3effd6,"Preston Zen",,,,,,,,
68eafc1675dc7f9cf,"FlyingBOX Defense",,,,,,,,,,,,,,,,,,,,"2025-10-12 00:53:42","2025-10-12 00:53:42",,,,,,,,,68df1d5a1ee3effd6,"Preston Zen",,,,,,,,
68eafc1673be355a6,Flyfish,,,,,,,,,,,,,,,,,,,,"2025-10-12 00:53:42","2025-10-12 00:53:42",,,,,,,,,68df1d5a1ee3effd6,"Preston Zen",,,,,,,,
68eafc1671a441364,"Fit Additive Manufacturing Group in Germany",,,,,,,,,,,,,,,,,,,,"2025-10-12 00:53:42","2025-10-12 00:53:42",,,,,,,,,68df1d5a1ee3effd6,"Preston Zen",,,,,,,,
68eafc166f8d5d61e,Firefly,,,,,,,,,,,,,,,,,,,,"2025-10-12 00:53:42","2025-10-12 00:53:42",,,,,,,,,68df1d5a1ee3effd6,"Preston Zen",,,,,,,,
68eafc166d785b501,"Farsight Vision",,,,,,,,,,,,,,,,,,,,"2025-10-12 00:53:42","2025-10-12 00:53:42",,,,,,,,,68df1d5a1ee3effd6,"Preston Zen",,,,,,,,
68eafc166b611b1e4,Falcom,,,,,,,,,,,,,,,,,,,,"2025-10-12 00:53:42","2025-10-12 00:53:42",,,,,,,,,68df1d5a1ee3effd6,"Preston Zen",,,,,,,,
68eafc166943b38ae,"EverGrove Solutions & TridentForward",,,,,,,,,,,,,,,,,,,,"2025-10-12 00:53:42","2025-10-12 00:53:42",,,,,,,,,68df1d5a1ee3effd6,"Preston Zen",,,,,,,,
68eafc1667247659e,"European Defense Tech Hub",,,,,,,,,,,,,,,,,,,,"2025-10-12 00:53:42","2025-10-12 00:53:42",,,,,,,,,68df1d5a1ee3effd6,"Preston Zen",,,,,,,,
68eafc16650db74a7,"Ethereum Foundation",,,,,,,,,,,,,,,,,,,,"2025-10-12 00:53:42","2025-10-12 00:53:42",,,,,,,,,68df1d5a1ee3effd6,"Preston Zen",,,,,,,,
68eafc1662f7d6ab8,"Electronic Warfare",,,,,,,,,,,,,,,,,,,,"2025-10-12 00:53:42","2025-10-12 00:53:42",,,,,,,,,68df1d5a1ee3effd6,"Preston Zen",,,,,,,,
68eafc1660e0f1edd,"Edgecloud Defence Connected Autonomy",,,,,,,,,,,,,,,,,,,,"2025-10-12 00:53:42","2025-10-12 00:53:42",,,,,,,,,68df1d5a1ee3effd6,"Preston Zen",,,,,,,,
68eafc165eca5468b,ELEKS,,,,,,,,,,,,,,,,,,,,"2025-10-12 00:53:42","2025-10-12 00:53:42",,,,,,,,,68df1d5a1ee3effd6,"Preston Zen",,,,,,,,
68eafc165cb0ba07d,EKIP,,,,,,,,,,,,,,,,,,,,"2025-10-12 00:53:42","2025-10-12 00:53:42",,,,,,,,,68df1d5a1ee3effd6,"Preston Zen",,,,,,,,
68eafc165a997ef36,Dymy,,,,,,,,,,,,,,,,,,,,"2025-10-12 00:53:42","2025-10-12 00:53:42",,,,,,,,,68df1d5a1ee3effd6,"Preston Zen",,,,,,,,
68eafc16588395e85,"Dutch Defence Cluster",,,,,,,,,,,,,,,,,,,,"2025-10-12 00:53:42","2025-10-12 00:53:42",,,,,,,,,68df1d5a1ee3effd6,"Preston Zen",,,,,,,,
68eafc16566896ffd,"Drohobych District Administration",,,,,,,,,,,,,,,,,,,,"2025-10-12 00:53:42","2025-10-12 00:53:42",,,,,,,,,68df1d5a1ee3effd6,"Preston Zen",,,,,,,,
68eafc16544e840ec,"Dropla Tech",,,,,,,,,,,,,,,,,,,,"2025-10-12 00:53:42","2025-10-12 00:53:42",,,,,,,,,68df1d5a1ee3effd6,"Preston Zen",,,,,,,,
68eafc1652361270a,"Dronopro / Geopro",,,,,,,,,,,,,,,,,,,,"2025-10-12 00:53:42","2025-10-12 00:53:42",,,,,,,,,68df1d5a1ee3effd6,"Preston Zen",,,,,,,,
68eafc165021d5a9b,Drobot,,,,,,,,,,,,,,,,,,,,"2025-10-12 00:53:42","2025-10-12 00:53:42",,,,,,,,,68df1d5a1ee3effd6,"Preston Zen",,,,,,,,
68eafc164df7ebefb,"Drone Nerds",,,,,,,,,,,,,,,,,,,,"2025-10-12 00:53:42","2025-10-12 00:53:42",,,,,,,,,68df1d5a1ee3effd6,"Preston Zen",,,,,,,,
68eafc164bd7efdba,"DroneUA Ground Systems",,,,,,,,,,,,,,,,,,,,"2025-10-12 00:53:42","2025-10-12 00:53:42",,,,,,,,,68df1d5a1ee3effd6,"Preston Zen",,,,,,,,
68eafc1649bf54016,Drone.ua,,,,,,,,,,,,,,,,,,,,"2025-10-12 00:53:42","2025-10-12 00:53:42",,,,,,,,,68df1d5a1ee3effd6,"Preston Zen",,,,,,,,
68eafc1647a231622,"Dolya & Co.",,,,,,,,,,,,,,,,,,,,"2025-10-12 00:53:42","2025-10-12 00:53:42",,,,,,,,,68df1d5a1ee3effd6,"Preston Zen",,,,,,,,
68eafc16455edb394,"Dignitas Fund",,,,,,,,,,,,,,,,,,,,"2025-10-12 00:53:42","2025-10-12 00:53:42",,,,,,,,,68df1d5a1ee3effd6,"Preston Zen",,,,,,,,
68eafc1643123612a,Devdroid,,,,,,,,,,,,,,,,,,,,"2025-10-12 00:53:42","2025-10-12 00:53:42",,,,,,,,,68df1d5a1ee3effd6,"Preston Zen",,,,,,,,
68eafc1640d227886,"Desfencitel Solutions",,,,,,,,,,,,,,,,,,,,"2025-10-12 00:53:42","2025-10-12 00:53:42",,,,,,,,,68df1d5a1ee3effd6,"Preston Zen",,,,,,,,
68eafc163e8fe8f14,Delta,,,,,,,,,,,,,,,,,,,,"2025-10-12 00:53:42","2025-10-12 00:53:42",,,,,,,,,68df1d5a1ee3effd6,"Preston Zen",,,,,,,,
68eafc163c5afd90d,Degree-Trans,,,,,,,,,,,,,,,,,,,,"2025-10-12 00:53:42","2025-10-12 00:53:42",,,,,,,,,68df1d5a1ee3effd6,"Preston Zen",,,,,,,,
68eafc163a1b5f268,Deftak,,,,,,,,,,,,,,,,,,,,"2025-10-12 00:53:42","2025-10-12 00:53:42",,,,,,,,,68df1d5a1ee3effd6,"Preston Zen",,,,,,,,
68eafc1637d83410c,"Defense Tech for Ukraine",,,,,,,,,,,,,,,,,,,,"2025-10-12 00:53:42","2025-10-12 00:53:42",,,,,,,,,68df1d5a1ee3effd6,"Preston Zen",,,,,,,,
68eafc16359b0d774,"Defense Express - media and consulting agency",,,,,,,,,,,,,,,,,,,,"2025-10-12 00:53:42","2025-10-12 00:53:42",,,,,,,,,68df1d5a1ee3effd6,"Preston Zen",,,,,,,,
68eafc16336031a99,"Defence Builder",,,,,,,,,,,,,,,,,,,,"2025-10-12 00:53:42","2025-10-12 00:53:42",,,,,,,,,68df1d5a1ee3effd6,"Preston Zen",,,,,,,,
68eafc163129cc971,Dec1,,,,,,,,,,,,,,,,,,,,"2025-10-12 00:53:42","2025-10-12 00:53:42",,,,,,,,,68df1d5a1ee3effd6,"Preston Zen",,,,,,,,
68eafc162ef28ac4a,"Danish Ukrainian business Council",,,,,,,,,,,,,,,,,,,,"2025-10-12 00:53:42","2025-10-12 00:53:42",,,,,,,,,68df1d5a1ee3effd6,"Preston Zen",,,,,,,,
68eafc162cbd24e8f,DIYA.Business,,,,,,,,,,,,,,,,,,,,"2025-10-12 00:53:42","2025-10-12 00:53:42",,,,,,,,,68df1d5a1ee3effd6,"Preston Zen",,,,,,,,
68eafc162a84a8e24,DIYA,,,,,,,,,,,,,,,,,,,,"2025-10-12 00:53:42","2025-10-12 00:53:42",,,,,,,,,68df1d5a1ee3effd6,"Preston Zen",,,,,,,,
68eafc162842b3526,DH,,,,,,,,,,,,,,,,,,,,"2025-10-12 00:53:42","2025-10-12 00:53:42",,,,,,,,,68df1d5a1ee3effd6,"Preston Zen",,,,,,,,
68eafc1625c176d0e,"DOD Solution",,,,,,,,,,,,,,,,,,,,"2025-10-12 00:53:42","2025-10-12 00:53:42",,,,,,,,,68df1d5a1ee3effd6,"Preston Zen",,,,,,,,
68eafc162310da729,Cyqlon,,,,,,,,,,,,,,,,,,,,"2025-10-12 00:53:42","2025-10-12 00:53:42",,,,,,,,,68df1d5a1ee3effd6,"Preston Zen",,,,,,,,
68eafc1620c422e4c,"Come Back Alive Foundation",,,,,,,,,,,,,,,,,,,,"2025-10-12 00:53:42","2025-10-12 00:53:42",,,,,,,,,68df1d5a1ee3effd6,"Preston Zen",,,,,,,,
68eafc161e96b0f0c,"Combat Simulation Industries",,,,,,,,,,,,,,,,,,,,"2025-10-12 00:53:42","2025-10-12 00:53:42",,,,,,,,,68df1d5a1ee3effd6,"Preston Zen",,,,,,,,
68eafc161c7745e6e,"Columbia University",,,,,,,,,,,,,,,,,,,,"2025-10-12 00:53:42","2025-10-12 00:53:42",,,,,,,,,68df1d5a1ee3effd6,"Preston Zen",,,,,,,,
68eafc161a6270e28,"College of Europe",,,,,,,,,,,,,,,,,,,,"2025-10-12 00:53:42","2025-10-12 00:53:42",,,,,,,,,68df1d5a1ee3effd6,"Preston Zen",,,,,,,,
68eafc161849fe40d,Coalas,,,,,,,,,,,,,,,,,,,,"2025-10-12 00:53:42","2025-10-12 00:53:42",,,,,,,,,68df1d5a1ee3effd6,"Preston Zen",,,,,,,,
68eafc16162aa123d,Clarity,,,,,,,,,,,,,,,,,,,,"2025-10-12 00:53:42","2025-10-12 00:53:42",,,,,,,,,68df1d5a1ee3effd6,"Preston Zen",,,,,,,,
68eafc16140327e8b,"Center for Defence Strategies",,,,,,,,,,,,,,,,,,,,"2025-10-12 00:53:42","2025-10-12 00:53:42",,,,,,,,,68df1d5a1ee3effd6,"Preston Zen",,,,,,,,
68eafc1611de63b7f,"CAFA Tech",,,,,,,,,,,,,,,,,,,,"2025-10-12 00:53:42","2025-10-12 00:53:42",,,,,,,,,68df1d5a1ee3effd6,"Preston Zen",,,,,,,,
68eafc160fba446d3,Burevii,,,,,,,,,,,,,,,,,,,,"2025-10-12 00:53:42","2025-10-12 00:53:42",,,,,,,,,68df1d5a1ee3effd6,"Preston Zen",,,,,,,,
68eafc160d94670af,"Buntar Aerospace",,,,,,,,,,,,,,,,,,,,"2025-10-12 00:53:42","2025-10-12 00:53:42",,,,,,,,,68df1d5a1ee3effd6,"Preston Zen",,,,,,,,
68eafc160b5f79ba3,"BTRY. Energy",,,,,,,,,,,,,,,,,,,,"2025-10-12 00:53:42","2025-10-12 00:53:42",,,,,,,,,68df1d5a1ee3effd6,"Preston Zen",,,,,,,,
68eafc1609287d701,"Bravo Dynamics",,,,,,,,,,,,,,,,,,,,"2025-10-12 00:53:42","2025-10-12 00:53:42",,,,,,,,,68df1d5a1ee3effd6,"Preston Zen",,,,,,,,
68eafc16049502156,"Bodya UGV Developer and Manufacturer",,,,,,,,,,,,,,,,,,,,"2025-10-12 00:53:42","2025-10-12 00:53:42",,,,,,,,,68df1d5a1ee3effd6,"Preston Zen",,,,,,,,
68eafc16027cd22b0,Bluebird,,,,,,,,,,,,,,,,,,,,"2025-10-12 00:53:42","2025-10-12 00:53:42",,,,,,,,,68df1d5a1ee3effd6,"Preston Zen",,,,,,,,
68eafc16005f5e15a,"Blue Arrow",,,,,,,,,,,,,,,,,,,,"2025-10-12 00:53:42","2025-10-12 00:53:42",,,,,,,,,68df1d5a1ee3effd6,"Preston Zen",,,,,,,,
68eafc15f26e291aa,"Black Forest Systems",,,,,,,,,,,,,,,,,,,,"2025-10-12 00:53:41","2025-10-12 00:53:41",,,,,,,,,68df1d5a1ee3effd6,"Preston Zen",,,,,,,,
68eafc15f053fa6ed,Besomar,,,,,,,,,,,,,,,,,,,,"2025-10-12 00:53:41","2025-10-12 00:53:41",,,,,,,,,68df1d5a1ee3effd6,"Preston Zen",,,,,,,,
68eafc15ee38b13fb,Barragier,,,,,,,,,,,,,,,,,,,,"2025-10-12 00:53:41","2025-10-12 00:53:41",,,,,,,,,68df1d5a1ee3effd6,"Preston Zen",,,,,,,,
68eafc15ec1a5cfa4,"Baker McKenzie",,,,,,,,,,,,,,,,,,,,"2025-10-12 00:53:41","2025-10-12 00:53:41",,,,,,,,,68df1d5a1ee3effd6,"Preston Zen",,,,,,,,
68eafc15ea0007fed,Awedyne,,,,,,,,,,,,,,,,,,,,"2025-10-12 00:53:41","2025-10-12 00:53:41",,,,,,,,,68df1d5a1ee3effd6,"Preston Zen",,,,,,,,
68eafc15e7e947868,"Aviation New Technologies",,,,,,,,,,,,,,,,,,,,"2025-10-12 00:53:41","2025-10-12 00:53:41",,,,,,,,,68df1d5a1ee3effd6,"Preston Zen",,,,,,,,
68eafc15e5d12619f,"Autonomous Engineering R&D Ukraine",,,,,,,,,,,,,,,,,,,,"2025-10-12 00:53:41","2025-10-12 00:53:41",,,,,,,,,68df1d5a1ee3effd6,"Preston Zen",,,,,,,,
68eafc15e3b529e48,Atreyd,,,,,,,,,,,,,,,,,,,,"2025-10-12 00:53:41","2025-10-12 00:53:41",,,,,,,,,68df1d5a1ee3effd6,"Preston Zen",,,,,,,,
68eafc15e1a24bf5a,Atmaraksi,,,,,,,,,,,,,,,,,,,,"2025-10-12 00:53:41","2025-10-12 00:53:41",,,,,,,,,68df1d5a1ee3effd6,"Preston Zen",,,,,,,,
68eafc15df86f2b7c,"Athena ISR",,,,,,,,,,,,,,,,,,,,"2025-10-12 00:53:41","2025-10-12 00:53:41",,,,,,,,,68df1d5a1ee3effd6,"Preston Zen",,,,,,,,
68eafc15dd6a11308,Asymmetrica,,,,,,,,,,,,,,,,,,,,"2025-10-12 00:53:41","2025-10-12 00:53:41",,,,,,,,,68df1d5a1ee3effd6,"Preston Zen",,,,,,,,
68eafc15db49c5f82,"Arrowline Security Pty Ltd",,,,,,,,,,,,,,,,,,,,"2025-10-12 00:53:41","2025-10-12 00:53:41",,,,,,,,,68df1d5a1ee3effd6,"Preston Zen",,,,,,,,
68eafc15d931604bb,"Armor Systems",,,,,,,,,,,,,,,,,,,,"2025-10-12 00:53:41","2025-10-12 00:53:41",,,,,,,,,68df1d5a1ee3effd6,"Preston Zen",,,,,,,,
68eafc15d71819b4a,"Armour F.AI",,,,,,,,,,,,,,,,,,,,"2025-10-12 00:53:41","2025-10-12 00:53:41",,,,,,,,,68df1d5a1ee3effd6,"Preston Zen",,,,,,,,
68eafc15d503a7544,"Arbigas Public Affairs",,,,,,,,,,,,,,,,,,,,"2025-10-12 00:53:41","2025-10-12 00:53:41",,,,,,,,,68df1d5a1ee3effd6,"Preston Zen",,,,,,,,
68eafc15d2e773faf,Anduril,,,,,,,,,,,,,,,,,,,,"2025-10-12 00:53:41","2025-10-12 00:53:41",,,,,,,,,68df1d5a1ee3effd6,"Preston Zen",,,,,,,,
68eafc15d0cad3b20,Amrop,,,,,,,,,,,,,,,,,,,,"2025-10-12 00:53:41","2025-10-12 00:53:41",,,,,,,,,68df1d5a1ee3effd6,"Preston Zen",,,,,,,,
68eafc15ceaf8b420,"Amazing Drones",,,,,,,,,,,,,,,,,,,,"2025-10-12 00:53:41","2025-10-12 00:53:41",,,,,,,,,68df1d5a1ee3effd6,"Preston Zen",,,,,,,,
68eafc15cc8d5566c,"Alta Ares",,,,,,,,,,,,,,,,,,,,"2025-10-12 00:53:41","2025-10-12 00:53:41",,,,,,,,,68df1d5a1ee3effd6,"Preston Zen",,,,,,,,
68eafc15ca76ea761,"Alfatec Group",,,,,,,,,,,,,,,,,,,,"2025-10-12 00:53:41","2025-10-12 00:53:41",,,,,,,,,68df1d5a1ee3effd6,"Preston Zen",,,,,,,,
68eafc15c85a3f57e,"Alcom Capital Partners / Kyiv School of Economics (KSE)",,,,,,,,,,,,,,,,,,,,"2025-10-12 00:53:41","2025-10-12 00:53:41",,,,,,,,,68df1d5a1ee3effd6,"Preston Zen",,,,,,,,
68eafc15c63e23ee1,"Aku Tech",,,,,,,,,,,,,,,,,,,,"2025-10-12 00:53:41","2025-10-12 00:53:41",,,,,,,,,68df1d5a1ee3effd6,"Preston Zen",,,,,,,,
68eafc15c418107f2,"Airlift Tactical",,,,,,,,,,,,,,,,,,,,"2025-10-12 00:53:41","2025-10-12 00:53:41",,,,,,,,,68df1d5a1ee3effd6,"Preston Zen",,,,,,,,
68eafc15bfb9482ea,Airlogix,,,,,,,,,,,,,,,,,,,,"2025-10-12 00:53:41","2025-10-12 00:53:41",,,,,,,,,68df1d5a1ee3effd6,"Preston Zen",,,,,,,,
68eafc15bd9ddc7da,Airdroper,,,,,,,,,,,,,,,,,,,,"2025-10-12 00:53:41","2025-10-12 00:53:41",,,,,,,,,68df1d5a1ee3effd6,"Preston Zen",,,,,,,,
68eafc15bb85a7ea4,"Ailand Systems",,,,,,,,,,,,,,,,,,,,"2025-10-12 00:53:41","2025-10-12 00:53:41",,,,,,,,,68df1d5a1ee3effd6,"Preston Zen",,,,,,,,
68eafc15b96853ba3,"Aero Center",,,,,,,,,,,,,,,,,,,,"2025-10-12 00:53:41","2025-10-12 00:53:41",,,,,,,,,68df1d5a1ee3effd6,"Preston Zen",,,,,,,,
68eafc15b74d45a30,"ARX Robotics",,,,,,,,,,,,,,,,,,,,"2025-10-12 00:53:41","2025-10-12 00:53:41",,,,,,,,,68df1d5a1ee3effd6,"Preston Zen",,,,,,,,
68eafc15b53547632,"ARK Robotics",,,,,,,,,,,,,,,,,,,,"2025-10-12 00:53:41","2025-10-12 00:53:41",,,,,,,,,68df1d5a1ee3effd6,"Preston Zen",,,,,,,,
68eafc15b31938fbd,"ANG Patriot Ukraine",,,,,,,,,,,,,,,,,,,,"2025-10-12 00:53:41","2025-10-12 00:53:41",,,,,,,,,68df1d5a1ee3effd6,"Preston Zen",,,,,,,,
68eafc15b0fdbad58,"AI Autonomix",,,,,,,,,,,,,,,,,,,,"2025-10-12 00:53:41","2025-10-12 00:53:41",,,,,,,,,68df1d5a1ee3effd6,"Preston Zen",,,,,,,,
68eafc15aee058e4f,3DTech,,,,,,,,,,,,,,,,,,,,"2025-10-12 00:53:41","2025-10-12 00:53:41",,,,,,,,,68df1d5a1ee3effd6,"Preston Zen",,,,,,,,
68eafc15acbe45da7,2UxU,,,,,,,,,,,,,,,,,,,,"2025-10-12 00:53:41","2025-10-12 00:53:41",,,,,,,,,68df1d5a1ee3effd6,"Preston Zen",,,,,,,,
68eafc15aa1680d2b,"2021 Solutions",,,,,,,,,,,,,,,,,,,,"2025-10-12 00:53:41","2025-10-12 00:53:41",,,,,,,,,68df1d5a1ee3effd6,"Preston Zen",,,,,,,,
68eae94f3e54a1fb8,"Taiwan Trade Center",kyiv.taiwantrade.com,,,,,,,,,,,,,,,,,,,"2025-10-11 23:33:35","2025-10-11 23:33:35",,,,,,"2025-10-11 23:34:25",,,68df1d5a1ee3effd6,"Preston Zen",,,,,,,,
68eae67695a861cce,"–í–∏–≥–æ—Ç–æ–≤–ª–µ–Ω–Ω—è —Ç–∞ –ø—Ä–æ–¥–∞–∂ –ø—Ä—É–∂–∏–Ω",,,,,,,,,,,,,,,,,,,,"2025-10-11 23:21:26","2025-10-11 23:21:26",,,,,,"2025-10-11 23:21:47",,,68df1d5a1ee3effd6,"Preston Zen",,,,,,,,
68eae36c10ba73095,"Combat Vision",combat.vision,,,,,,,,,,,,,,,,,,,"2025-10-11 23:08:28","2025-10-11 23:08:28",,,,,,"2025-10-11 23:10:11",,,68df1d5a1ee3effd6,"Preston Zen",,,,,,,,
68eae2b99e0ee2474,"Ministry of Defense of Ukraine",mod.gov.ua/en,,,,,,,,,,,,,,,,,,,"2025-10-11 23:05:29","2025-10-11 23:05:29",,,,,,"2025-10-11 23:05:42",,,68df1d5a1ee3effd6,"Preston Zen",,,,,,,,
68eae234f295c770a,Nodih,www.nodih.com,,,,,,,,,,,Ukraine,,,,,Ukraine,,,"2025-10-11 23:03:16","2025-10-11 23:03:31",,,,,,"2025-10-11 23:04:20",,,68df1d5a1ee3effd6,"Preston Zen",68df1d5a1ee3effd6,"Preston Zen",,,,,,
68eae1b3a2ee994d5,Brave1,brave1.gov.ua,,,,,,,,,,,,,,,,,,,"2025-10-11 23:01:07","2025-10-11 23:01:07",,,,,,"2025-10-11 23:02:39",,,68df1d5a1ee3effd6,"Preston Zen",,,,,,,,
68eae118a316c2bb9,"Mits Capital",mits.capital,,,,,,,,,,,,,,,,,,,"2025-10-11 22:58:32","2025-10-11 22:58:32",,,,,,"2025-10-11 22:58:32",,,68df1d5a1ee3effd6,"Preston Zen",,,,,,,,
